NORAD_CAT_ID,OBJECT_NAME,OBJECT_TYPE,EPOCH,MEAN_MOTION,ECCENTRICITY,INCLINATION,RA_OF_ASC_NODE,ARG_OF_PERICENTER,MEAN_ANOMALY,BSTAR,MEAN_MOTION_DOT,MEAN_MOTION_DDOT,TLE_LINE0,TLE_LINE1,TLE_LINE2,SEMIMAJOR_AXIS,PERIOD,APOGEE,PERIGEE,DECAYED
52686.0,STARLINK-4005,PAYLOAD,2022-05-24 16:00:00,15.80124573,0.0001715,53.2162,267.0662,42.0615,149.24,-0.0041324,-0.00725744,0.0,0 STARLINK-4005,1 52686U 22017AG  22144.66667824 -.00725744  00000-0 -41324-2 0  9994,2 52686  53.2162 267.0662 0001715  42.0615 149.2400 15.80124573  1309,6708.225,91.132,331.24,328.94,0.0
52686.0,STARLINK-4005,PAYLOAD,2022-05-24 22:00:00,15.79771349,0.0001597,53.2172,265.8169,36.9823,137.0797,-0.0051818,-0.00879234,0.0,0 STARLINK-4005,1 52686U 22053AG  22144.91667824 -.00879234  00000-0 -51818-2 0  9995,2 52686  53.2172 265.8169 0001597  36.9823 137.0797 15.79771349  1300,6709.225,91.152,332.161,330.01800000000014,0.0
52686.0,STARLINK-4005,PAYLOAD,2022-05-25 04:00:00,15.79295823,0.0001663,53.2174,264.5665,32.7428,123.7199,-0.0052505,-0.00872385,0.0,0 STARLINK-4005,1 52686U 22053AG  22145.16667824 -.00872385  00000-0 -52505-2 0  9997,2 52686  53.2174 264.5665 0001663  32.7428 123.7199 15.79295823  1371,6710.571999999999,91.18,333.55300000000005,331.321,0.0
52686.0,STARLINK-4005,PAYLOAD,2022-05-25 14:00:01,15.78512809,0.0002008,53.2175,262.4887,21.8007,344.3793,-0.0054832,-0.00878558,0.0,0 STARLINK-4005,1 52686U 22053AG  22145.58334491 -.00878558  00000-0 -54832-2 0  9997,2 52686  53.2175 262.4887 0002008  21.8007 344.3793 15.78512809  1300,6712.791,91.225,336.004,333.30800000000005,0.0
52686.0,STARLINK-4005,PAYLOAD,2022-05-25 20:00:01,15.78040404,0.0001381,53.2171,261.2426,36.2641,311.1798,-0.0055875,-0.00876285,0.0,0 STARLINK-4005,1 52686U 22053AG  22145.83334491 -.00876285  00000-0 -55875-2 0  9998,2 52686  53.2171 261.2426 0001381  36.2641 311.1798 15.78040404  1482,6714.13,91.252,336.922,335.0680000000001,0.0
52686.0,STARLINK-4005,PAYLOAD,2022-05-25 22:00:00,15.77882593,0.0001527,53.2171,260.8266,36.3889,64.7165,-0.0056288999999999,-0.0087652999999999,0.0,0 STARLINK-4005,1 52686U 22053AG  22145.91667824 -.00876530  00000-0 -56289-2 0  9999,2 52686  53.2171 260.8266 0001527  36.3889  64.7165 15.77882593  1308,6714.578,91.262,337.468,335.418,0.0
52686.0,STARLINK-4005,PAYLOAD,2022-05-26 14:00:01,15.76624057,0.0001988,53.2172,257.5081,25.1926,263.4935,-0.005959,-0.00877064,0.0,0 STARLINK-4005,1 52686U 22053AG  22146.58334491 -.00877064  00000-0 -59590-2 0  9995,2 52686  53.2172 257.5081 0001988  25.1926 263.4935 15.76624057  1307,6718.151,91.334,341.351,338.68,0.0
52686.0,STARLINK-4005,PAYLOAD,2022-05-26 20:00:01,15.76152131,0.0001393,53.2172,256.2652,43.3695,224.879,-0.0060733,-0.00875261,0.0,0 STARLINK-4005,1 52686U 22053AG  22146.83334491 -.00875261  00000-0 -60733-2 0  9991,2 52686  53.2172 256.2652 0001393  43.3695 224.8790 15.76152131  1648,6719.4919999999975,91.362,342.293,340.421,0.0
52686.0,STARLINK-4005,PAYLOAD,2022-05-26 22:00:00,15.75994863,0.0001354,53.2173,255.8506,38.4019,342.9404,-0.0061219,-0.0087602999999999,0.0,0 STARLINK-4005,1 52686U 22053AG  22146.91667824 -.00876030  00000-0 -61219-2 0  9994,2 52686  53.2173 255.8506 0001354  38.4019 342.9404 15.75994863  1306,6719.939,91.371,342.714,340.894,0.0
52686.0,STARLINK-4005,PAYLOAD,2022-05-27 14:00:01,15.74734915,0.0001876,53.2175,252.5413,32.4623,171.9241,-0.006454,-0.00874038,0.0,0 STARLINK-4005,1 52686U 22053AG  22147.58334491 -.00874038  00000-0 -64540-2 0  9995,2 52686  53.2175 252.5413 0001876  32.4623 171.9241 15.74734915  1301,6723.523,91.444,346.649,344.126,0.0
52686.0,STARLINK-4005,PAYLOAD,2022-05-27 20:00:01,15.74265461,0.0001683,53.217,251.3017,37.2621,144.9849,-0.0066228,-0.00878154,0.0,0 STARLINK-4005,1 52686U 22053AG  22147.83334491 -.00878154  00000-0 -66228-2 0  9991,2 52686  53.2170 251.3017 0001683  37.2621 144.9849 15.74265461  1804,6724.859,91.471,347.856,345.592,0.0
52686.0,STARLINK-4005,PAYLOAD,2022-05-27 22:00:01,15.74106595,0.0001468,53.2173,250.888,39.4521,255.3874,-0.0066483,-0.00875638,0.0,0 STARLINK-4005,1 52686U 22053AG  22147.91668981 -.00875638  00000-0 -66483-2 0  9991,2 52686  53.2173 250.8880 0001468  39.4521 255.3874 15.74106595  1305,6725.312,91.48,348.164,346.189,0.0
52686.0,STARLINK-4005,PAYLOAD,2022-05-28 04:00:00,15.73465306,0.0001692,53.2172,249.6483,39.6547,232.4436,-0.0027466,-0.00373725,0.0,0 STARLINK-4005,1 52686U 22053AG  22148.16667824 -.00373725  00000-0 -27466-2 0  9992,2 52686  53.2172 249.6483 0001692  39.6547 232.4436 15.73465306  1855,6727.139,91.518,350.142,347.866,0.0
52686.0,STARLINK-4005,PAYLOAD,2022-05-28 12:00:00,15.73206347,0.0001713,53.2172,248.0,5.3317,355.8435,-2.4643e-05,-4.078e-05,0.0,0 STARLINK-4005,1 52686U 22053AG  22148.50001157 -.00004078  00000-0 -24643-4 0  9999,2 52686  53.2172 248.0000 0001713   5.3317 355.8435 15.73206347  1905,6727.877,91.533,350.895,348.59,0.0
52686.0,STARLINK-4005,PAYLOAD,2022-05-28 14:00:01,15.73206864,0.0001786,53.2172,247.5882,5.8963,107.512,-3.1999e-05,-5.11e-05,0.0,0 STARLINK-4005,1 52686U 22053AG  22148.58334491 -.00005110  00000-0 -31999-4 0  9997,2 52686  53.2172 247.5882 0001786   5.8963 107.5120 15.73206864  1300,6727.876,91.533,350.94199999999995,348.539,0.0
52686.0,STARLINK-4005,PAYLOAD,2022-05-28 22:00:00,15.73260873,0.0001618,53.2152,245.9327,23.7036,178.6522,0.0002375,0.00032929,0.0,0 STARLINK-4005,1 52686U 22053AG  22148.91667824  .00032929  00000-0  23750-3 0  9994,2 52686  53.2152 245.9327 0001618  23.7036 178.6522 15.73260873  1976,6727.722,91.53,350.675,348.49800000000016,0.0
52686.0,STARLINK-4005,PAYLOAD,2022-05-29 04:00:00,15.73275651,0.0001518,53.2154,244.694,29.8762,149.221,-0.00011086,-0.000162,0.0,0 STARLINK-4005,1 52686U 22053AG  22149.16667824 -.00016200  00000-0 -11086-3 0  9997,2 52686  53.2154 244.6940 0001518  29.8762 149.2210 15.73275651  2000,6727.679,91.529,350.566,348.523,0.0
52686.0,STARLINK-4005,PAYLOAD,2022-05-29 10:51:55,15.73281271,0.0004916,53.2113,243.2792,355.3061,4.7912,0.00077031,0.00109343,0.0,0 STARLINK-4005,1 52686U 22053AG  22149.45272423  .00109343  00000-0  77031-3 0  9997,2 52686  53.2113 243.2792 0004916 355.3061   4.7912 15.73281271  2053,6727.663000000001,91.528,352.836,346.221,0.0
52686.0,STARLINK-4005,PAYLOAD,2022-05-29 14:00:01,15.73206413,0.0001843,53.2154,242.6343,29.5766,350.7548,-0.00070148,-0.00097964,0.0,0 STARLINK-4005,1 52686U 22053AG  22149.58334491 -.00097964  00000-0 -70148-3 0  9994,2 52686  53.2154 242.6343 0001843  29.5766 350.7548 15.73206413  1302,6727.877,91.533,350.982,348.50199999999984,0.0
52686.0,STARLINK-4005,PAYLOAD,2022-05-29 20:00:01,15.73153836,0.0001918,53.2146,241.3968,29.6765,327.3384,0.00012667,0.00017159,0.0,0 STARLINK-4005,1 52686U 22053AG  22149.83334491  .00017159  00000-0  12667-3 0  9990,2 52686  53.2146 241.3968 0001918  29.6765 327.3384 15.73153836  2113,6728.026999999999,91.536,351.182,348.601,0.0
52686.0,STARLINK-4005,PAYLOAD,2022-05-29 20:00:47,15.73254663,1.99e-05,53.2126,241.3928,87.9945,272.1098,0.00045474,0.00063837,0.0,0 STARLINK-4005,1 52686U 22053AG  22149.83388278  .00063837  00000-0  45474-3 0  9998,2 52686  53.2126 241.3928 0000199  87.9945 272.1098 15.73254663  2506,6727.739000000001,91.53,349.73800000000006,349.47,0.0
52686.0,STARLINK-4005,PAYLOAD,2022-05-30 12:47:06,15.73178983,0.0001761,53.2138,237.9354,12.95,347.1565,0.00014434,0.00019666,0.0,0 STARLINK-4005,1 52686U 22053AG  22150.53271590  .00019666  00000-0  14434-3 0  9998,2 52686  53.2138 237.9354 0001761  12.9500 347.1565 15.73178983  2618,6727.955,91.534,351.005,348.635,0.0
52686.0,STARLINK-4005,PAYLOAD,2022-05-30 12:47:07,15.73097922,0.00023,53.2136,237.9353,358.1588,1.9423,-0.00037963,-0.00053338,0.0,0 STARLINK-4005,1 52686U 22053AG  22150.53272577 -.00053338  00000-0 -37963-3 0  9992,2 52686  53.2136 237.9353 0002300 358.1588   1.9423 15.73097922  2224,6728.186,91.539,351.599,348.504,0.0
52686.0,STARLINK-4005,PAYLOAD,2022-05-30 20:24:30,15.73215195,0.000207,53.2138,236.3631,21.9523,338.1586,0.00021408,0.00029551,0.0,0 STARLINK-4005,1 52686U 22053AG  22150.85035321  .00029551  00000-0  21408-3 0  9996,2 52686  53.2138 236.3631 0002070  21.9523 338.1586 15.73215195  2270,6727.852,91.532,351.11,348.324,0.0
52686.0,STARLINK-4005,PAYLOAD,2022-05-30 22:00:00,15.7324609,0.0002008,53.2151,236.0356,34.7625,341.2208,-0.00038271,-0.00054098,0.0,0 STARLINK-4005,1 52686U 22053AG  22150.91667824 -.00054098  00000-0 -38271-3 0  9994,2 52686  53.2151 236.0356 0002008  34.7625 341.2208 15.73246090  1309,6727.764,91.53,350.98,348.278,0.0
52686.0,STARLINK-4005,PAYLOAD,2022-05-31 05:33:23,15.73227798,0.0001859,53.215,234.4768,38.3761,321.7391,0.00014664,0.00020033,0.0,0 STARLINK-4005,1 52686U 22053AG  22151.23151648  .00020033  00000-0  14664-3 0  9992,2 52686  53.2150 234.4768 0001859  38.3761 321.7391 15.73227798  2728,6727.816,91.532,350.932,348.43,0.0
52686.0,STARLINK-4005,PAYLOAD,2022-05-31 11:39:17,15.73286443,0.0002196,53.2149,233.22,42.7851,317.334,0.00042919,0.00060275,0.0,0 STARLINK-4005,1 52686U 22053AG  22151.48561744  .00060275  00000-0  42919-3 0  9997,2 52686  53.2149 233.2200 0002196  42.7851 317.3340 15.73286443  2376,6727.649,91.528,350.991,348.036,0.0
52686.0,STARLINK-4005,PAYLOAD,2022-05-31 19:16:41,15.73250782,0.0002419,53.2148,231.6477,40.2378,319.8821,0.00018558,0.00025562,0.0,0 STARLINK-4005,1 52686U 22053AG  22151.80325757  .00025562  00000-0  18558-3 0  9997,2 52686  53.2148 231.6477 0002419  40.2378 319.8821 15.73250782  2422,6727.75,91.53,351.24300000000005,347.98800000000006,0.0
52686.0,STARLINK-4005,PAYLOAD,2022-05-31 22:00:00,15.73227173,0.0002023,53.2144,231.0868,31.2595,251.5993,3.5894e-05,4.425e-05,0.0,0 STARLINK-4005,1 52686U 22053AG  22151.91667824  .00004425  00000-0  35894-4 0  9991,2 52686  53.2144 231.0868 0002023  31.2595 251.5993 15.73227173  1304,6727.818,91.532,351.0440000000001,348.32199999999995,0.0
